{
  "type": "FeatureCollection",
  "features": [
    {
      "type": "Feature",
      "properties": {
        "norad_id": 50032,
        "name": "COSMOS 1408 DEB",
        "group": "cosmos-1408-debris",
        "lat": 79.32765337013228,
        "lon": 104.37983183129373,
        "alt_km": 429.1835451092593,
        "timestamp": "2025-12-10T18:57:00.335977+00:00",
        "meta_object_name": "COSMOS 1408 DEB",
        "meta_object_id": "1982-092RU",
        "meta_epoch": "2025-12-10T12:22:45.329088",
        "meta_mean_motion": 15.45657785,
        "meta_eccentricity": 0.0015073,
        "meta_inclination": 82.5641,
        "meta_ra_of_asc_node": 60.788,
        "meta_arg_of_pericenter": 217.1445,
        "meta_mean_anomaly": 142.8762,
        "meta_ephemeris_type": 0,
        "meta_classification_type": "U",
        "meta_norad_cat_id": 50032,
        "meta_element_set_no": 999,
        "meta_rev_at_epoch": 22569,
        "meta_bstar": 0.00015994,
        "meta_mean_motion_dot": 7.781e-05,
        "meta_mean_motion_ddot": 0,
        "tle_line1": "1 50032U 82092RU  25344.51580242  .00007781  00000+0  15994-3 0  9999",
        "tle_line2": "2 50032  82.5641  60.7880 0015073 217.1445 142.8762 15.45657785225694"
      },
      "geometry": {
        "type": "Point",
        "coordinates": [
          104.37983183129373,
          79.32765337013228
        ]
      }
    },
    {
      "type": "Feature",
      "properties": {
        "norad_id": 50058,
        "name": "COSMOS 1408 DEB",
        "group": "cosmos-1408-debris",
        "lat": 23.79589077961614,
        "lon": -111.89809745237444,
        "alt_km": 368.8848960634177,
        "timestamp": "2025-12-10T18:57:00.335998+00:00",
        "meta_object_name": "COSMOS 1408 DEB",
        "meta_object_id": "1982-092SW",
        "meta_epoch": "2025-12-10T07:32:15.069120",
        "meta_mean_motion": 15.63871955,
        "meta_eccentricity": 0.001649,
        "meta_inclination": 82.6126,
        "meta_ra_of_asc_node": 71.8794,
        "meta_arg_of_pericenter": 107.0459,
        "meta_mean_anomaly": 253.2608,
        "meta_ephemeris_type": 0,
        "meta_classification_type": "U",
        "meta_norad_cat_id": 50058,
        "meta_element_set_no": 999,
        "meta_rev_at_epoch": 22766,
        "meta_bstar": 0.00047418,
        "meta_mean_motion_dot": 0.00044963,
        "meta_mean_motion_ddot": 0,
        "tle_line1": "1 50058U 82092SW  25344.31406330  .00044963  00000+0  47418-3 0  9999",
        "tle_line2": "2 50058  82.6126  71.8794 0016490 107.0459 253.2608 15.63871955227666"
      },
      "geometry": {
        "type": "Point",
        "coordinates": [
          -111.89809745237444,
          23.79589077961614
        ]
      }
    },
    {
      "type": "Feature",
      "properties": {
        "norad_id": 50404,
        "name": "COSMOS 1408 DEB",
        "group": "cosmos-1408-debris",
        "lat": -78.1104828043327,
        "lon": 77.63096646838234,
        "alt_km": 464.2060878187158,
        "timestamp": "2025-12-10T18:57:00.336012+00:00",
        "meta_object_name": "COSMOS 1408 DEB",
        "meta_object_id": "1982-092ADS",
        "meta_epoch": "2025-12-10T01:55:59.645280",
        "meta_mean_motion": 15.13181066,
        "meta_eccentricity": 0.01731067,
        "meta_inclination": 82.2033,
        "meta_ra_of_asc_node": 217.7549,
        "meta_arg_of_pericenter": 208.0507,
        "meta_mean_anomaly": 151.1318,
        "meta_ephemeris_type": 0,
        "meta_classification_type": "U",
        "meta_norad_cat_id": 50404,
        "meta_element_set_no": 999,
        "meta_rev_at_epoch": 21153,
        "meta_bstar": 0.0036852181,
        "meta_mean_motion_dot": 0.00095791,
        "meta_mean_motion_ddot": 0,
        "tle_line1": "1 50404U 82092ADS 25344.08055145  .00095791  00000+0  36852-2 0  9996",
        "tle_line2": "2 50404  82.2033 217.7549 0173106 208.0507 151.1318 15.13181066211532"
      },
      "geometry": {
        "type": "Point",
        "coordinates": [
          77.63096646838234,
          -78.1104828043327
        ]
      }
    },
    {
      "type": "Feature",
      "properties": {
        "norad_id": 50621,
        "name": "COSMOS 1408 DEB",
        "group": "cosmos-1408-debris",
        "lat": -44.03161598699529,
        "lon": -96.54125237926108,
        "alt_km": 396.2145098707442,
        "timestamp": "2025-12-10T18:57:00.336024+00:00",
        "meta_object_name": "COSMOS 1408 DEB",
        "meta_object_id": "1982-092ALR",
        "meta_epoch": "2025-12-10T07:11:23.445888",
        "meta_mean_motion": 15.564597,
        "meta_eccentricity": 0.0028841,
        "meta_inclination": 82.5698,
        "meta_ra_of_asc_node": 76.7205,
        "meta_arg_of_pericenter": 161.3855,
        "meta_mean_anomaly": 198.8462,
        "meta_ephemeris_type": 0,
        "meta_classification_type": "U",
        "meta_norad_cat_id": 50621,
        "meta_element_set_no": 999,
        "meta_rev_at_epoch": 22212,
        "meta_bstar": 0.00053678,
        "meta_mean_motion_dot": 0.00038838,
        "meta_mean_motion_ddot": 0,
        "tle_line1": "1 50621U 82092ALR 25344.29957692  .00038838  00000+0  53678-3 0  9993",
        "tle_line2": "2 50621  82.5698  76.7205 0028841 161.3855 198.8462 15.56459700222122"
      },
      "geometry": {
        "type": "Point",
        "coordinates": [
          -96.54125237926108,
          -44.03161598699529
        ]
      }
    }
  ]
}